CCSDS_OMM_VERS = 2.0
CREATION_DATE  = 
ORIGINATOR     = 

OBJECT_NAME    = SL-4 R/B
OBJECT_ID      = 2014-021B
CENTER_NAME    = EARTH
REF_FRAME      = TEME
TIME_SYSTEM    = UTC
MEAN_ELEMENT_THEORY = SGP/SGP4

EPOCH          = 2026-02-03T12:41:47.705568
MEAN_MOTION    = 15.38096477
ECCENTRICITY   = .00990247
INCLINATION    = 51.6070
RA_OF_ASC_NODE = 143.7845
ARG_OF_PERICENTER = 338.4792
MEAN_ANOMALY   = 21.2042

EPHEMERIS_TYPE = 0
CLASSIFICATION_TYPE = U
NORAD_CAT_ID   = 39679
ELEMENT_SET_NO = 999
REV_AT_EPOCH   = 65101
BSTAR          = .2975001E-3
MEAN_MOTION_DOT = .12984E-3
MEAN_MOTION_DDOT = 0

CCSDS_OMM_VERS = 2.0
CREATION_DATE  = 
ORIGINATOR     = 

OBJECT_NAME    = ALOS-2
OBJECT_ID      = 2014-029A
CENTER_NAME    = EARTH
REF_FRAME      = TEME
TIME_SYSTEM    = UTC
MEAN_ELEMENT_THEORY = SGP/SGP4

EPOCH          = 2026-02-04T07:23:53.993184
MEAN_MOTION    = 14.79478399
ECCENTRICITY   = .0001438
INCLINATION    = 97.9221
RA_OF_ASC_NODE = 134.3859
ARG_OF_PERICENTER = 102.5712
MEAN_ANOMALY   = 257.5660

EPHEMERIS_TYPE = 0
CLASSIFICATION_TYPE = U
NORAD_CAT_ID   = 39766
ELEMENT_SET_NO = 999
REV_AT_EPOCH   = 63193
BSTAR          = .88194E-4
MEAN_MOTION_DOT = .607E-5
MEAN_MOTION_DDOT = 0

CCSDS_OMM_VERS = 2.0
CREATION_DATE  = 
ORIGINATOR     = 

OBJECT_NAME    = YAOGAN-29
OBJECT_ID      = 2015-069A
CENTER_NAME    = EARTH
REF_FRAME      = TEME
TIME_SYSTEM    = UTC
MEAN_ELEMENT_THEORY = SGP/SGP4

EPOCH          = 2026-02-04T04:37:46.548768
MEAN_MOTION    = 14.82956158
ECCENTRICITY   = .0002908
INCLINATION    = 98.0175
RA_OF_ASC_NODE = 63.5275
ARG_OF_PERICENTER = 92.3414
MEAN_ANOMALY   = 267.8132

EPHEMERIS_TYPE = 0
CLASSIFICATION_TYPE = U
NORAD_CAT_ID   = 41038
ELEMENT_SET_NO = 999
REV_AT_EPOCH   = 55091
BSTAR          = .58901E-4
MEAN_MOTION_DOT = .424E-5
MEAN_MOTION_DDOT = 0

CCSDS_OMM_VERS = 2.0
CREATION_DATE  = 
ORIGINATOR     = 

OBJECT_NAME    = ASTRO-H (HITOMI)
OBJECT_ID      = 2016-012A
CENTER_NAME    = EARTH
REF_FRAME      = TEME
TIME_SYSTEM    = UTC
MEAN_ELEMENT_THEORY = SGP/SGP4

EPOCH          = 2026-02-03T14:07:11.388000
MEAN_MOTION    = 15.09749554
ECCENTRICITY   = .00098754
INCLINATION    = 30.9978
RA_OF_ASC_NODE = 216.5694
ARG_OF_PERICENTER = 349.5717
MEAN_ANOMALY   = 10.4715

EPHEMERIS_TYPE = 0
CLASSIFICATION_TYPE = U
NORAD_CAT_ID   = 41337
ELEMENT_SET_NO = 999
REV_AT_EPOCH   = 54707
BSTAR          = .21557625E-3
MEAN_MOTION_DOT = .3662E-4
MEAN_MOTION_DDOT = 0

CCSDS_OMM_VERS = 2.0
CREATION_DATE  = 
ORIGINATOR     = 

OBJECT_NAME    = HXMT (HUIYAN)
OBJECT_ID      = 2017-034A
CENTER_NAME    = EARTH
REF_FRAME      = TEME
TIME_SYSTEM    = UTC
MEAN_ELEMENT_THEORY = SGP/SGP4

EPOCH          = 2026-02-03T22:33:05.090400
MEAN_MOTION    = 15.17007385
ECCENTRICITY   = .0031417
INCLINATION    = 43.0128
RA_OF_ASC_NODE = 204.2439
ARG_OF_PERICENTER = 18.9038
MEAN_ANOMALY   = 341.2969

EPHEMERIS_TYPE = 0
CLASSIFICATION_TYPE = U
NORAD_CAT_ID   = 42758
ELEMENT_SET_NO = 999
REV_AT_EPOCH   = 47741
BSTAR          = .3172E-3
MEAN_MOTION_DOT = .6225E-4
MEAN_MOTION_DDOT = 0

CCSDS_OMM_VERS = 2.0
CREATION_DATE  = 
ORIGINATOR     = 

OBJECT_NAME    = CZ-2C R/B
OBJECT_ID      = 2018-054D
CENTER_NAME    = EARTH
REF_FRAME      = TEME
TIME_SYSTEM    = UTC
MEAN_ELEMENT_THEORY = SGP/SGP4

EPOCH          = 2026-02-03T12:01:11.208288
MEAN_MOTION    = 15.92667316
ECCENTRICITY   = .00136198
INCLINATION    = 35.1291
RA_OF_ASC_NODE = 179.0721
ARG_OF_PERICENTER = 331.2393
MEAN_ANOMALY   = 28.7594

EPHEMERIS_TYPE = 0
CLASSIFICATION_TYPE = U
NORAD_CAT_ID   = 43521
ELEMENT_SET_NO = 999
REV_AT_EPOCH   = 42341
BSTAR          = .77031116E-3
MEAN_MOTION_DOT = .279251E-2
MEAN_MOTION_DDOT = .29957252E-4

CCSDS_OMM_VERS = 2.0
CREATION_DATE  = 
ORIGINATOR     = 

OBJECT_NAME    = SAOCOM 1A
OBJECT_ID      = 2018-076A
CENTER_NAME    = EARTH
REF_FRAME      = TEME
TIME_SYSTEM    = UTC
MEAN_ELEMENT_THEORY = SGP/SGP4

EPOCH          = 2026-02-04T03:21:55.434816
MEAN_MOTION    = 14.82151780
ECCENTRICITY   = .0001368
INCLINATION    = 97.8858
RA_OF_ASC_NODE = 223.7889
ARG_OF_PERICENTER = 86.7233
MEAN_ANOMALY   = 273.4137

EPHEMERIS_TYPE = 0
CLASSIFICATION_TYPE = U
NORAD_CAT_ID   = 43641
ELEMENT_SET_NO = 999
REV_AT_EPOCH   = 39639
BSTAR          = .97661E-4
MEAN_MOTION_DOT = .725E-5
MEAN_MOTION_DDOT = 0

CCSDS_OMM_VERS = 2.0
CREATION_DATE  = 
ORIGINATOR     = 

OBJECT_NAME    = H-2A R/B
OBJECT_ID      = 2018-084L
CENTER_NAME    = EARTH
REF_FRAME      = TEME
TIME_SYSTEM    = UTC
MEAN_ELEMENT_THEORY = SGP/SGP4

EPOCH          = 2026-02-04T03:40:33.872448
MEAN_MOTION    = 15.39849549
ECCENTRICITY   = .0026305
INCLINATION    = 98.8756
RA_OF_ASC_NODE = 245.4111
ARG_OF_PERICENTER = 138.3262
MEAN_ANOMALY   = 221.9990

EPHEMERIS_TYPE = 0
CLASSIFICATION_TYPE = U
NORAD_CAT_ID   = 43682
ELEMENT_SET_NO = 999
REV_AT_EPOCH   = 40061
BSTAR          = .53837E-3
MEAN_MOTION_DOT = .21559E-3
MEAN_MOTION_DDOT = 0

CCSDS_OMM_VERS = 2.0
CREATION_DATE  = 
ORIGINATOR     = 

OBJECT_NAME    = SAOCOM 1B
OBJECT_ID      = 2020-059A
CENTER_NAME    = EARTH
REF_FRAME      = TEME
TIME_SYSTEM    = UTC
MEAN_ELEMENT_THEORY = SGP/SGP4

EPOCH          = 2026-02-04T04:06:56.113056
MEAN_MOTION    = 14.82157860
ECCENTRICITY   = .0001359
INCLINATION    = 97.8857
RA_OF_ASC_NODE = 222.9181
ARG_OF_PERICENTER = 82.0959
MEAN_ANOMALY   = 278.0408

EPHEMERIS_TYPE = 0
CLASSIFICATION_TYPE = U
NORAD_CAT_ID   = 46265
ELEMENT_SET_NO = 999
REV_AT_EPOCH   = 29378
BSTAR          = .38096E-4
MEAN_MOTION_DOT = .251E-5
MEAN_MOTION_DDOT = 0

CCSDS_OMM_VERS = 2.0
CREATION_DATE  = 
ORIGINATOR     = 

OBJECT_NAME    = CSS (TIANHE)
OBJECT_ID      = 2021-035A
CENTER_NAME    = EARTH
REF_FRAME      = TEME
TIME_SYSTEM    = UTC
MEAN_ELEMENT_THEORY = SGP/SGP4

EPOCH          = 2026-02-04T04:01:20.921664
MEAN_MOTION    = 15.59165703
ECCENTRICITY   = .0006041
INCLINATION    = 41.4675
RA_OF_ASC_NODE = 51.9003
ARG_OF_PERICENTER = 355.4467
MEAN_ANOMALY   = 4.6316

EPHEMERIS_TYPE = 0
CLASSIFICATION_TYPE = U
NORAD_CAT_ID   = 48274
ELEMENT_SET_NO = 999
REV_AT_EPOCH   = 27237
BSTAR          = .20308E-3
MEAN_MOTION_DOT = .16071E-3
MEAN_MOTION_DDOT = 0

CCSDS_OMM_VERS = 2.0
CREATION_DATE  = 
ORIGINATOR     = 

OBJECT_NAME    = COSMOS 2550
OBJECT_ID      = 2021-056A
CENTER_NAME    = EARTH
REF_FRAME      = TEME
TIME_SYSTEM    = UTC
MEAN_ELEMENT_THEORY = SGP/SGP4

EPOCH          = 2026-01-26T03:10:39.828288
MEAN_MOTION    = 15.33840202
ECCENTRICITY   = .00083094
INCLINATION    = 67.1441
RA_OF_ASC_NODE = 169.6578
ARG_OF_PERICENTER = 269.8947
MEAN_ANOMALY   = 90.1255

EPHEMERIS_TYPE = 0
CLASSIFICATION_TYPE = U
NORAD_CAT_ID   = 48865
ELEMENT_SET_NO = 999
REV_AT_EPOCH   = 25693
BSTAR          = .322698E-6
MEAN_MOTION_DOT = -.181E-5
MEAN_MOTION_DDOT = 0

CCSDS_OMM_VERS = 2.0
CREATION_DATE  = 
ORIGINATOR     = 

OBJECT_NAME    = CZ-2C R/B
OBJECT_ID      = 2022-058K
CENTER_NAME    = EARTH
REF_FRAME      = TEME
TIME_SYSTEM    = UTC
MEAN_ELEMENT_THEORY = SGP/SGP4

EPOCH          = 2026-02-03T14:28:42.142656
MEAN_MOTION    = 15.51827388
ECCENTRICITY   = .00424756
INCLINATION    = 50.1897
RA_OF_ASC_NODE = 133.3094
ARG_OF_PERICENTER = 56.2790
MEAN_ANOMALY   = 304.2217

EPHEMERIS_TYPE = 0
CLASSIFICATION_TYPE = U
NORAD_CAT_ID   = 52794
ELEMENT_SET_NO = 999
REV_AT_EPOCH   = 20483
BSTAR          = .47819632E-3
MEAN_MOTION_DOT = .29913E-3
MEAN_MOTION_DDOT = 0

